PROBA-1                 
1 26958U 01049B   22282.50148295  .00004667  00000+0  39444-3 0  9993
2 26958  97.8357 242.4439 0069961 324.8315  34.8299 14.96685232141463
BIRD 2                  
1 26959U 01049C   22282.26178650  .00030822  00000+0  60471-3 0  9991
2 26959  97.7635  21.9531 0005611 331.1905  28.9033 15.47280144470761
CUTE-1 (CO-55)          
1 27844U 03031E   22282.44694466  .00000478  00000+0  23359-3 0  9994
2 27844  98.6811 288.4263 0010707 128.0055 232.2091 14.22509582    84
CUBESAT XI-IV (CO-57)   
1 27848U 03031J   22282.44568065  .00000402  00000+0  20141-3 0  9996
2 27848  98.6855 288.9197 0010401 141.3930 218.7993 14.22058801999886
GENESIS 1               
1 29252U 06029A   22282.53302569  .00012289  00000+0  52918-3 0  9995
2 29252  64.5228  56.2428 0053995 245.4817 114.0674 15.21599744896326
FALCONSAT-3             
1 30776U 07006E   22282.54962668  .00122844  00000+0  12605-2 0  9994
2 30776  35.4281 228.2530 0003586 247.9567 112.0787 15.63570061867384
GENESIS 2               
1 31789U 07028A   22282.55701064  .00008877  00000+0  39689-3 0  9996
2 31789  64.4954  99.6335 0056500 297.3200  62.2178 15.20455920843246
APRIZESAT 4             
1 35684U 09041D   22282.31314810  .00001202  00000+0  16473-3 0  9995
2 35684  98.3090 299.8551 0046421 348.1187  11.8925 14.79766755711906
APRIZESAT 3             
1 35686U 09041F   22282.21127945  .00002790  00000+0  29543-3 0  9992
2 35686  98.1046  11.4052 0072019 173.6033 186.6120 14.88118603715527
PROBA-2                 
1 36037U 09059B   22282.51495657  .00000392  00000+0  10502-3 0  9994
2 36037  98.2244 106.9782 0014498 115.1267 245.1435 14.53304343685825
APRIZESAT 5             
1 37792U 11044E   22282.47520748  .00001355  00000+0  20034-3 0  9996
2 37792  98.3058 161.1595 0057783   2.1689 357.9759 14.75878378599812
APRIZESAT 6             
1 37793U 11044F   22282.51503847  .00000994  00000+0  16110-3 0  9991
2 37793  98.3863 138.3875 0047636  54.8830  11.3851 14.72884142598650
TET-1                   
1 38710U 12039D   22282.48191087  .00241409  00000+0  86110-3 0  9996
2 38710  97.5002  12.7458 0001401 260.0331 100.0782 15.88284116575382
PROBA-V                 
1 39159U 13021A   22282.55244335  .00000100  00000+0  62280-4 0  9993
2 39159  98.3480 312.6463 0005273 112.2212 247.9527 14.23052130489552
STPSAT-3                
1 39380U 13064A   22282.48050020  .00075809  00000+0  12662-2 0  9999
2 39380  40.4976  68.8273 0007555  38.5021 321.6336 15.50895819496969
APRIZESAT 7             
1 39416U 13066A   22282.46463020  .00002288  00000+0  27298-3 0  9990
2 39416  97.5854 256.9736 0040178 344.7177  15.2821 14.84636088480957
APRIZESAT 8             
1 39425U 13066K   22282.44621422  .00001928  00000+0  24522-3 0  9997
2 39425  97.6410 248.5749 0052159  28.7844 331.6229 14.81764439479841
BUGSAT-1 (TITA)         
1 40014U 14033E   22282.57530618  .00005501  00000+0  47683-3 0  9992
2 40014  98.1446 285.6977 0031657  22.8603 337.4019 14.97151427453213
SAUDISAT 4              
1 40016U 14033G   22282.49255734  .00001014  00000+0  15259-3 0  9997
2 40016  97.6387 111.0702 0049080 130.3113 230.2402 14.75654133447218
APRIZESAT 9             
1 40018U 14033J   22282.46240655  .00001256  00000+0  20788-3 0  9993
2 40018  97.7268  87.0051 0070309 206.5432 153.2169 14.70361938445402
APRIZESAT 10            
1 40019U 14033K   22282.44180995  .00001033  00000+0  18211-3 0  9993
2 40019  97.7834  76.8848 0082530 252.3760 106.8420 14.67391684444516
TDS 1                   
1 40076U 14037H   22282.38742265  .00004638  00000+0  53626-3 0  9990
2 40076  98.3720 161.3285 0008124  66.1764 294.0301 14.86068724446626
TIANTUO 2               
1 40144U 14053B   22282.45616032  .00011236  00000+0  29122-3 0  9990
2 40144  97.1870   0.1672 0011559 141.3144 274.4977 15.39117867452629
TECHNOSAT               
1 42829U 17042E   22282.56667534  .00002551  00000+0  25555-3 0  9994
2 42829  97.4072 129.9932 0013731 352.0678   8.0323 14.92127579285106
FLYING LAPTOP           
1 42831U 17042G   22282.41707936  .00002746  00000+0  27566-3 0  9992
2 42831  97.4104 130.1896 0013780 353.5444   6.5561 14.91993759285083
HAWK-A                  
1 43765U 18099H   22282.49072679  .00003277  00000+0  28608-3 0  9997
2 43765  97.6090 347.5722 0013106 246.9714 113.0126 14.97432613210201
HAWK-B                  
1 43794U 18099AN  22282.42428406  .00003226  00000+0  28171-3 0  9994
2 43794  97.6090 347.5073 0013224 247.3008 112.6816 14.97431904210184
HAWK-C                  
1 43799U 18099AT  22282.42408480  .00003234  00000+0  28238-3 0  9992
2 43799  97.6088 347.4144 0013064 247.2725 112.7116 14.97433194210931
SALSAT                  
1 46495U 20068K   22282.40876122  .00005118  00000+0  36423-3 0  9995
2 46495  97.7367 223.8185 0014809 249.7033 110.2601 15.05005857111323
